NORAD_CAT_ID,OBJECT_NAME,OBJECT_TYPE,EPOCH,MEAN_MOTION,ECCENTRICITY,INCLINATION,RA_OF_ASC_NODE,ARG_OF_PERICENTER,MEAN_ANOMALY,BSTAR,MEAN_MOTION_DOT,MEAN_MOTION_DDOT,TLE_LINE0,TLE_LINE1,TLE_LINE2,SEMIMAJOR_AXIS,PERIOD,APOGEE,PERIGEE,DECAYED
51998.0,STARLINK-3618,PAYLOAD,2022-08-29 04:00:00,15.0885994,0.0001465,53.218,43.5116,76.4236,123.0371,-0.0038091,-0.00060434,0.0,0 STARLINK-3618,1 51998U 22025AU  22241.16667824 -.00060434  00000-0 -38091-2 0  9996,2 51998  53.2180  43.5116 0001465  76.4236 123.0371 15.08859940 27912,6917.819,95.436,540.698,538.6709999999998,0.0
51998.0,STARLINK-3618,PAYLOAD,2022-08-29 12:00:00,15.08834687,0.0001558,53.2184,42.015,81.649,129.4002,2.1145e-05,4.8e-07,0.0,0 STARLINK-3618,1 51998U 22025AU  22241.50001157  .00000048  00000-0  21145-4 0  9992,2 51998  53.2184  42.0150 0001558  81.6490 129.4002 15.08834687 27968,6917.897,95.438,540.839,538.684,0.0
51998.0,STARLINK-3618,PAYLOAD,2022-08-29 14:00:01,15.08844005,0.0001553,53.2184,41.6413,78.9097,225.034,-0.0013737,-0.00022086,0.0,0 STARLINK-3618,1 51998U 22025AU  22241.58334491 -.00022086  00000-0 -13737-2 0  9994,2 51998  53.2184  41.6413 0001553  78.9097 225.0340 15.08844005  1305,6917.868,95.437,540.807,538.659,0.0
51998.0,STARLINK-3618,PAYLOAD,2022-08-29 22:00:00,15.08817589,0.0001561999999999,53.2183,40.1462,70.8979,244.6406,0.0028184,0.00044825,0.0,0 STARLINK-3618,1 51998U 22025AU  22241.91667824  .00044825  00000-0  28184-2 0  9995,2 51998  53.2183  40.1462 0001562  70.8979 244.6406 15.08817589  1309,6917.949000000001,95.439,540.894,538.7330000000002,0.0
51998.0,STARLINK-3618,PAYLOAD,2022-08-30 14:00:01,15.08860868,0.0001501,53.2189,37.1526,78.7219,259.9884,-0.0017519,-0.00028077,0.0,0 STARLINK-3618,1 51998U 22025AU  22242.58334491 -.00028077  00000-0 -17519-2 0  9993,2 51998  53.2189  37.1526 0001501  78.7219 259.9884 15.08860868 28125,6917.816999999999,95.436,540.72,538.643,0.0
51998.0,STARLINK-3618,PAYLOAD,2022-08-30 22:00:00,15.08838246,0.0001431999999999,53.2186,35.6572,70.0299,280.2941,-0.00058338,-9.56e-05,0.0,0 STARLINK-3618,1 51998U 22025AU  22242.91667824 -.00009560  00000-0 -58338-3 0  9990,2 51998  53.2186  35.6572 0001432  70.0299 280.2941 15.08838246  1309,6917.886,95.438,540.741,538.76,0.0
51998.0,STARLINK-3618,PAYLOAD,2022-08-31 12:00:00,15.08841168,0.0001339,53.2191,33.0375,81.7358,198.8535,-0.00064723,-0.00010574,0.0,0 STARLINK-3618,1 51998U 22025AU  22243.50001157 -.00010574  00000-0 -64723-3 0  9999,2 51998  53.2191  33.0375 0001339  81.7358 198.8535 15.08841168 28263,6917.877,95.437,540.668,538.816,0.0
51998.0,STARLINK-3618,PAYLOAD,2022-08-31 14:00:01,15.08847079,0.0001346,53.2191,32.664,77.919,295.5675,-0.001633,-0.00026188,0.0,0 STARLINK-3618,1 51998U 22025AU  22243.58334491 -.00026188  00000-0 -16330-2 0  9995,2 51998  53.2191  32.6640 0001346  77.9190 295.5675 15.08847079  1305,6917.859,95.437,540.655,538.793,0.0
51998.0,STARLINK-3618,PAYLOAD,2022-08-31 22:00:00,15.08824142,0.0001337,53.2186,31.1685,70.1219,314.9569,0.0016902,0.00026702,0.0,0 STARLINK-3618,1 51998U 22025AU  22243.91667824  .00026702  00000-0  16902-2 0  9996,2 51998  53.2186  31.1685 0001337  70.1219 314.9569 15.08824142  1303,6917.929,95.439,540.719,538.869,0.0
51998.0,STARLINK-3618,PAYLOAD,2022-09-01 12:00:00,15.08830711,0.0001369,53.2177,28.5529,73.3885,241.9659,0.00061343,9.486e-05,0.0,0 STARLINK-3618,1 51998U 22025AU  22244.50001157  .00009486  00000-0  61343-3 0  9993,2 51998  53.2177  28.5529 0001369  73.3885 241.9659 15.08830711 28418,6917.909000000002,95.438,540.721,538.827,0.0
51998.0,STARLINK-3618,PAYLOAD,2022-09-01 14:00:01,15.08835823,0.0001402,53.2177,28.1799,69.6595,338.6524,0.00011206,1.496e-05,0.0,0 STARLINK-3618,1 51998U 22025AU  22244.58335648  .00001496  00000-0  11206-3 0  9992,2 51998  53.2177  28.1799 0001402  69.6595 338.6524 15.08835823  1300,6917.893,95.438,540.7280000000002,538.788,0.0
51998.0,STARLINK-3618,PAYLOAD,2022-09-01 22:00:00,15.08848719,0.0001376999999999,53.2182,26.6798,71.0752,348.7939,-0.0013062,-0.00021021,0.0,0 STARLINK-3618,1 51998U 22025AU  22244.91667824 -.00021021  00000-0 -13062-2 0  9992,2 51998  53.2182  26.6798 0001377  71.0752 348.7939 15.08848719  1301,6917.854,95.437,540.6709999999998,538.766,0.0
51998.0,STARLINK-3618,PAYLOAD,2022-09-02 12:00:02,15.08847371,0.0001413,53.2184,24.0603,82.1175,268.0872,-0.0013859999999999,-0.00022283,0.0,0 STARLINK-3618,1 51998U 22025AU  22245.50002315 -.00022283  00000-0 -13860-2 0  9993,2 51998  53.2184  24.0603 0001413  82.1175 268.0872 15.08847371 28563,6917.858,95.437,540.7,538.745,0.0
51998.0,STARLINK-3618,PAYLOAD,2022-09-02 14:00:01,15.08846623,0.0001433,53.2182,23.6869,78.7697,4.2717,-0.0016512999999999,-0.00026477,0.0,0 STARLINK-3618,1 51998U 22025AU  22245.58334491 -.00026477  00000-0 -16513-2 0  9991,2 51998  53.2182  23.6869 0001433  78.7697   4.2717 15.08846623  1302,6917.86,95.437,540.716,538.734,0.0
51998.0,STARLINK-3618,PAYLOAD,2022-09-02 22:00:01,15.08834203,0.0001412,53.2178,22.1909,71.6413,23.0532,0.00093117,0.0001456,0.0,0 STARLINK-3618,1 51998U 22025AU  22245.91668981  .00014560  00000-0  93117-3 0  9996,2 51998  53.2178  22.1909 0001412  71.6413  23.0532 15.08834203  1306,6917.898,95.438,540.74,538.786,0.0
51998.0,STARLINK-3618,PAYLOAD,2022-09-03 06:00:00,15.08821783,0.0001347,53.2179,20.6929,81.9039,24.3308,0.0029381,0.00046759,0.0,0 STARLINK-3618,1 51998U 22025AU  22246.25001157  .00046759  00000-0  29381-2 0  9996,2 51998  53.2179  20.6929 0001347  81.9039  24.3308 15.08821783 28681,6917.936,95.439,540.7330000000002,538.869,0.0
51998.0,STARLINK-3618,PAYLOAD,2022-09-03 14:00:01,15.08867819,0.0001415,53.2179,19.1979,76.0792,41.7469,-0.0024285,-0.00038759,0.0,0 STARLINK-3618,1 51998U 22025AU  22246.58334491 -.00038759  00000-0 -24285-2 0  9993,2 51998  53.2179  19.1979 0001415  76.0792  41.7469 15.08867819  1307,6917.795,95.436,540.639,538.681,0.0
51998.0,STARLINK-3618,PAYLOAD,2022-09-03 22:00:00,15.08847462,0.0001333,53.2178,17.7018,68.1239,61.3214,-0.00049067,-8.09e-05,0.0,0 STARLINK-3618,1 51998U 22025AU  22246.91667824 -.00008090  00000-0 -49067-3 0  9990,2 51998  53.2178  17.7018 0001333  68.1239  61.3214 15.08847462 28780,6917.858,95.437,540.645,538.8,0.0
51998.0,STARLINK-3618,PAYLOAD,2022-09-04 14:00:01,15.0884051,0.0001468,53.218,14.7087,73.189,79.5025,-0.00046702,-7.713e-05,0.0,0 STARLINK-3618,1 51998U 22025AU  22247.58335648 -.00007713  00000-0 -46702-3 0  9994,2 51998  53.2180  14.7087 0001468  73.1890  79.5025 15.08840510  1301,6917.879,95.438,540.759,538.7280000000002,0.0
51998.0,STARLINK-3618,PAYLOAD,2022-09-04 20:00:01,15.08823424,0.0001456,53.2181,13.5871,66.6775,4.6484,0.003484,0.00055572,0.0,0 STARLINK-3618,1 51998U 22025AU  22247.83334491  .00055572  00000-0  34840-2 0  9990,2 51998  53.2181  13.5871 0001456  66.6775   4.6484 15.08823424  1309,6917.931,95.439,540.803,538.789,0.0
51998.0,STARLINK-3618,PAYLOAD,2022-09-05 04:00:00,15.08856085,0.000132,53.2184,12.0889,74.4127,8.5245,0.0002226,3.258e-05,0.0,0 STARLINK-3618,1 51998U 22025AU  22248.16667824  .00003258  00000-0  22260-3 0  9994,2 51998  53.2184  12.0889 0001320  74.4127   8.5245 15.08856085 28972,6917.831,95.437,540.609,538.783,0.0
51998.0,STARLINK-3618,PAYLOAD,2022-09-05 14:00:01,15.08867633,0.0001415,53.2184,10.2196,68.9142,118.5344,-0.0030671999999999,-0.00048808,0.0,0 STARLINK-3618,1 51998U 22025AU  22248.58334491 -.00048808  00000-0 -30672-2 0  9998,2 51998  53.2184  10.2196 0001415  68.9142 118.5344 15.08867633  1304,6917.795999999999,95.436,540.64,538.682,0.0
51998.0,STARLINK-3618,PAYLOAD,2022-09-05 22:00:00,15.08852982,0.0001424,53.2185,8.7231,65.9284,133.1252,-0.0037433,-0.00059392,0.0,0 STARLINK-3618,1 51998U 22025AU  22248.91667824 -.00059392  00000-0 -37433-2 0  9996,2 51998  53.2185   8.7231 0001424  65.9284 133.1252 15.08852982 29088,6917.840999999999,95.437,540.691,538.721,0.0
51998.0,STARLINK-3618,PAYLOAD,2022-09-06 12:00:00,15.08810429,0.0001453999999999,53.219,6.1041,72.0168,57.278,-0.0010720999999999,-0.00017296,0.0,0 STARLINK-3618,1 51998U 22025AU  22249.50001157 -.00017296  00000-0 -10721-2 0  9991,2 51998  53.2190   6.1041 0001454  72.0168  57.2780 15.08810429 29170,6917.971,95.439,540.842,538.83,0.0
51998.0,STARLINK-3618,PAYLOAD,2022-09-06 14:00:01,15.08802291,0.0001479,53.2189,5.7306,69.2321,152.9532,-0.0001188,-2.176e-05,0.0,0 STARLINK-3618,1 51998U 22025AU  22249.58334491 -.00002176  00000-0 -11880-3 0  9998,2 51998  53.2189   5.7306 0001479  69.2321 152.9532 15.08802291  1304,6917.996,95.44,540.884,538.837,0.0
51998.0,STARLINK-3618,PAYLOAD,2022-09-06 22:00:00,15.0882269,0.0001440999999999,53.2189,4.2341,66.6015,167.1275,-0.00069722,-0.00011362,0.0,0 STARLINK-3618,1 51998U 22025AU  22249.91667824 -.00011362  00000-0 -69722-3 0  9999,2 51998  53.2189   4.2341 0001441  66.6015 167.1275 15.08822690  1304,6917.933000000001,95.439,540.795,538.8009999999998,0.0
51998.0,STARLINK-3618,PAYLOAD,2022-09-07 06:00:00,15.0880288,0.000136,53.2192,2.7364,76.3484,168.9508,0.0028818,0.00045827,0.0,0 STARLINK-3618,1 51998U 22025AU  22250.25001157  .00045827  00000-0  28818-2 0  9990,2 51998  53.2192   2.7364 0001360  76.3484 168.9508 15.08802880 29288,6917.994000000002,95.44,540.8,538.918,0.0
51998.0,STARLINK-3618,PAYLOAD,2022-09-07 14:00:01,15.08831354,0.0001450999999999,53.2192,1.2419,68.0485,188.8227,-0.00010341,-1.933e-05,0.0,0 STARLINK-3618,1 51998U 22025AU  22250.58334491 -.00001933  00000-0 -10341-3 0  9991,2 51998  53.2192   1.2419 0001451  68.0485 188.8227 15.08831354  1303,6917.906999999997,95.438,540.776,538.768,0.0
51998.0,STARLINK-3618,PAYLOAD,2022-09-07 20:00:01,15.08831178,0.0001426999999999,53.219,0.1197,64.3465,111.2744,0.0015918,0.0002513,0.0,0 STARLINK-3618,1 51998U 22025AU  22250.83335648  .00025130  00000-0  15918-2 0  9991,2 51998  53.2190   0.1197 0001427  64.3465 111.2744 15.08831178 29377,6917.906999999997,95.438,540.76,538.785,0.0
